CCSDS_OMM_VERS = 2.0
CREATION_DATE  = 
ORIGINATOR     = 

OBJECT_NAME    = STARLINK-36102
OBJECT_ID      = 2025-281B
CENTER_NAME    = EARTH
REF_FRAME      = TEME
TIME_SYSTEM    = UTC
MEAN_ELEMENT_THEORY = SGP/SGP4

EPOCH          = 2025-12-12T06:00:00.999648
MEAN_MOTION    = 15.91906176
ECCENTRICITY   = .00015607
INCLINATION    = 43.0014
RA_OF_ASC_NODE = 125.4326
ARG_OF_PERICENTER = 270.3518
MEAN_ANOMALY   = 311.7384

EPHEMERIS_TYPE = 0
CLASSIFICATION_TYPE = U
NORAD_CAT_ID   = 66849
ELEMENT_SET_NO = 999
REV_AT_EPOCH   = 132
BSTAR          = -.33532152E-2
MEAN_MOTION_DOT = -.1147544E-1
MEAN_MOTION_DDOT = .38822471E-3

CCSDS_OMM_VERS = 2.0
CREATION_DATE  = 
ORIGINATOR     = 

OBJECT_NAME    = STARLINK-36105
OBJECT_ID      = 2025-281C
CENTER_NAME    = EARTH
REF_FRAME      = TEME
TIME_SYSTEM    = UTC
MEAN_ELEMENT_THEORY = SGP/SGP4

EPOCH          = 2025-12-12T06:00:00.999648
MEAN_MOTION    = 15.91957782
ECCENTRICITY   = .00014912
INCLINATION    = 43.0012
RA_OF_ASC_NODE = 125.4257
ARG_OF_PERICENTER = 266.2485
MEAN_ANOMALY   = 318.7227

EPHEMERIS_TYPE = 0
CLASSIFICATION_TYPE = U
NORAD_CAT_ID   = 66850
ELEMENT_SET_NO = 999
REV_AT_EPOCH   = 132
BSTAR          = -.3367103E-2
MEAN_MOTION_DOT = -.1155307E-1
MEAN_MOTION_DDOT = .39323538E-3

CCSDS_OMM_VERS = 2.0
CREATION_DATE  = 
ORIGINATOR     = 

OBJECT_NAME    = STARLINK-36094
OBJECT_ID      = 2025-281D
CENTER_NAME    = EARTH
REF_FRAME      = TEME
TIME_SYSTEM    = UTC
MEAN_ELEMENT_THEORY = SGP/SGP4

EPOCH          = 2025-12-12T06:00:00.999648
MEAN_MOTION    = 15.92003928
ECCENTRICITY   = .00015449
INCLINATION    = 43.0012
RA_OF_ASC_NODE = 125.4199
ARG_OF_PERICENTER = 270.5048
MEAN_ANOMALY   = 316.6742

EPHEMERIS_TYPE = 0
CLASSIFICATION_TYPE = U
NORAD_CAT_ID   = 66851
ELEMENT_SET_NO = 999
REV_AT_EPOCH   = 132
BSTAR          = -.33597051E-2
MEAN_MOTION_DOT = -.1155548E-1
MEAN_MOTION_DDOT = .39356022E-3

CCSDS_OMM_VERS = 2.0
CREATION_DATE  = 
ORIGINATOR     = 

OBJECT_NAME    = STARLINK-35992
OBJECT_ID      = 2025-281E
CENTER_NAME    = EARTH
REF_FRAME      = TEME
TIME_SYSTEM    = UTC
MEAN_ELEMENT_THEORY = SGP/SGP4

EPOCH          = 2025-12-12T06:00:00.999648
MEAN_MOTION    = 15.92050299
ECCENTRICITY   = .0001606
INCLINATION    = 43.0014
RA_OF_ASC_NODE = 125.4148
ARG_OF_PERICENTER = 271.7344
MEAN_ANOMALY   = 317.5716

EPHEMERIS_TYPE = 0
CLASSIFICATION_TYPE = U
NORAD_CAT_ID   = 66852
ELEMENT_SET_NO = 999
REV_AT_EPOCH   = 132
BSTAR          = -.33709939E-2
MEAN_MOTION_DOT = -.1162179E-1
MEAN_MOTION_DDOT = .3978768E-3

CCSDS_OMM_VERS = 2.0
CREATION_DATE  = 
ORIGINATOR     = 

OBJECT_NAME    = STARLINK-35986
OBJECT_ID      = 2025-281F
CENTER_NAME    = EARTH
REF_FRAME      = TEME
TIME_SYSTEM    = UTC
MEAN_ELEMENT_THEORY = SGP/SGP4

EPOCH          = 2025-12-12T06:00:00.999648
MEAN_MOTION    = 15.92109961
ECCENTRICITY   = .00017001
INCLINATION    = 43.0011
RA_OF_ASC_NODE = 125.4068
ARG_OF_PERICENTER = 269.3425
MEAN_ANOMALY   = 323.0355

EPHEMERIS_TYPE = 0
CLASSIFICATION_TYPE = U
NORAD_CAT_ID   = 66853
ELEMENT_SET_NO = 999
REV_AT_EPOCH   = 132
BSTAR          = -.33927239E-2
MEAN_MOTION_DOT = -.117322E-1
MEAN_MOTION_DDOT = .40504845E-3

CCSDS_OMM_VERS = 2.0
CREATION_DATE  = 
ORIGINATOR     = 

OBJECT_NAME    = STARLINK-36087
OBJECT_ID      = 2025-281G
CENTER_NAME    = EARTH
REF_FRAME      = TEME
TIME_SYSTEM    = UTC
MEAN_ELEMENT_THEORY = SGP/SGP4

EPOCH          = 2025-12-12T06:00:00.999648
MEAN_MOTION    = 15.92163881
ECCENTRICITY   = .00017744
INCLINATION    = 43.0012
RA_OF_ASC_NODE = 125.3992
ARG_OF_PERICENTER = 264.2973
MEAN_ANOMALY   = 331.0129

EPHEMERIS_TYPE = 0
CLASSIFICATION_TYPE = U
NORAD_CAT_ID   = 66854
ELEMENT_SET_NO = 999
REV_AT_EPOCH   = 132
BSTAR          = -.33938214E-2
MEAN_MOTION_DOT = -.1176882E-1
MEAN_MOTION_DDOT = .40757673E-3

CCSDS_OMM_VERS = 2.0
CREATION_DATE  = 
ORIGINATOR     = 

OBJECT_NAME    = STARLINK-36090
OBJECT_ID      = 2025-281H
CENTER_NAME    = EARTH
REF_FRAME      = TEME
TIME_SYSTEM    = UTC
MEAN_ELEMENT_THEORY = SGP/SGP4

EPOCH          = 2025-12-12T06:00:00.999648
MEAN_MOTION    = 15.92210110
ECCENTRICITY   = .00017702
INCLINATION    = 43.0013
RA_OF_ASC_NODE = 125.3934
ARG_OF_PERICENTER = 265.6138
MEAN_ANOMALY   = 332.0674

EPHEMERIS_TYPE = 0
CLASSIFICATION_TYPE = U
NORAD_CAT_ID   = 66855
ELEMENT_SET_NO = 999
REV_AT_EPOCH   = 130
BSTAR          = -.33776412E-2
MEAN_MOTION_DOT = -.1174128E-1
MEAN_MOTION_DDOT = .40601585E-3

CCSDS_OMM_VERS = 2.0
CREATION_DATE  = 
ORIGINATOR     = 

OBJECT_NAME    = STARLINK-36072
OBJECT_ID      = 2025-281J
CENTER_NAME    = EARTH
REF_FRAME      = TEME
TIME_SYSTEM    = UTC
MEAN_ELEMENT_THEORY = SGP/SGP4

EPOCH          = 2025-12-12T06:00:00.999648
MEAN_MOTION    = 15.92266827
ECCENTRICITY   = .00015756
INCLINATION    = 43.0013
RA_OF_ASC_NODE = 125.3864
ARG_OF_PERICENTER = 269.2300
MEAN_ANOMALY   = 331.2039

EPHEMERIS_TYPE = 0
CLASSIFICATION_TYPE = U
NORAD_CAT_ID   = 66856
ELEMENT_SET_NO = 999
REV_AT_EPOCH   = 132
BSTAR          = -.34020027E-2
MEAN_MOTION_DOT = -.1185946E-1
MEAN_MOTION_DDOT = .41374598E-3

CCSDS_OMM_VERS = 2.0
CREATION_DATE  = 
ORIGINATOR     = 

OBJECT_NAME    = STARLINK-36083
OBJECT_ID      = 2025-281K
CENTER_NAME    = EARTH
REF_FRAME      = TEME
TIME_SYSTEM    = UTC
MEAN_ELEMENT_THEORY = SGP/SGP4

EPOCH          = 2025-12-12T06:00:00.999648
MEAN_MOTION    = 15.92314621
ECCENTRICITY   = .00017221
INCLINATION    = 43.0012
RA_OF_ASC_NODE = 125.3807
ARG_OF_PERICENTER = 269.3877
MEAN_ANOMALY   = 333.3143

EPHEMERIS_TYPE = 0
CLASSIFICATION_TYPE = U
NORAD_CAT_ID   = 66857
ELEMENT_SET_NO = 999
REV_AT_EPOCH   = 132
BSTAR          = -.33945167E-2
MEAN_MOTION_DOT = -.1186319E-1
MEAN_MOTION_DDOT = .41417569E-3

CCSDS_OMM_VERS = 2.0
CREATION_DATE  = 
ORIGINATOR     = 

OBJECT_NAME    = STARLINK-35118
OBJECT_ID      = 2025-281L
CENTER_NAME    = EARTH
REF_FRAME      = TEME
TIME_SYSTEM    = UTC
MEAN_ELEMENT_THEORY = SGP/SGP4

EPOCH          = 2025-12-12T06:00:00.999648
MEAN_MOTION    = 15.92374231
ECCENTRICITY   = .0001747
INCLINATION    = 43.0015
RA_OF_ASC_NODE = 125.3743
ARG_OF_PERICENTER = 266.3019
MEAN_ANOMALY   = 338.7888

EPHEMERIS_TYPE = 0
CLASSIFICATION_TYPE = U
NORAD_CAT_ID   = 66858
ELEMENT_SET_NO = 999
REV_AT_EPOCH   = 130
BSTAR          = -.34314595E-2
MEAN_MOTION_DOT = -.1202807E-1
MEAN_MOTION_DDOT = .42500879E-3

CCSDS_OMM_VERS = 2.0
CREATION_DATE  = 
ORIGINATOR     = 

OBJECT_NAME    = STARLINK-35646
OBJECT_ID      = 2025-281M
CENTER_NAME    = EARTH
REF_FRAME      = TEME
TIME_SYSTEM    = UTC
MEAN_ELEMENT_THEORY = SGP/SGP4

EPOCH          = 2025-12-12T06:00:00.999648
MEAN_MOTION    = 15.92424905
ECCENTRICITY   = .00018426
INCLINATION    = 43.0014
RA_OF_ASC_NODE = 125.3678
ARG_OF_PERICENTER = 266.3962
MEAN_ANOMALY   = 341.3718

EPHEMERIS_TYPE = 0
CLASSIFICATION_TYPE = U
NORAD_CAT_ID   = 66859
ELEMENT_SET_NO = 999
REV_AT_EPOCH   = 132
BSTAR          = -.33979325E-2
MEAN_MOTION_DOT = -.1194324E-1
MEAN_MOTION_DDOT = .41974981E-3

CCSDS_OMM_VERS = 2.0
CREATION_DATE  = 
ORIGINATOR     = 

OBJECT_NAME    = STARLINK-35987
OBJECT_ID      = 2025-281N
CENTER_NAME    = EARTH
REF_FRAME      = TEME
TIME_SYSTEM    = UTC
MEAN_ELEMENT_THEORY = SGP/SGP4

EPOCH          = 2025-12-12T06:00:00.999648
MEAN_MOTION    = 15.92726392
ECCENTRICITY   = .00018601
INCLINATION    = 43.0013
RA_OF_ASC_NODE = 125.3327
ARG_OF_PERICENTER = 264.2978
MEAN_ANOMALY   = 357.3397

EPHEMERIS_TYPE = 0
CLASSIFICATION_TYPE = U
NORAD_CAT_ID   = 66860
ELEMENT_SET_NO = 999
REV_AT_EPOCH   = 132
BSTAR          = -.34072923E-2
MEAN_MOTION_DOT = -.1216464E-1
MEAN_MOTION_DDOT = .43536372E-3

