STARLINK-36102          
1 66849U 25281B   25346.25001157 -.01147544  38822-3 -33532-2 0  9994
2 66849  43.0014 125.4326 0001560 270.3518 311.7384 15.91906176  1326
STARLINK-36105          
1 66850U 25281C   25346.25001157 -.01155307  39324-3 -33671-2 0  9994
2 66850  43.0012 125.4257 0001491 266.2485 318.7227 15.91957782  1321
STARLINK-36094          
1 66851U 25281D   25346.25001157 -.01155548  39356-3 -33597-2 0  9994
2 66851  43.0012 125.4199 0001544 270.5048 316.6742 15.92003928  1323
STARLINK-35992          
1 66852U 25281E   25346.25001157 -.01162179  39788-3 -33710-2 0  9999
2 66852  43.0014 125.4148 0001606 271.7344 317.5716 15.92050299  1325
STARLINK-35986          
1 66853U 25281F   25346.25001157 -.01173220  40505-3 -33927-2 0  9998
2 66853  43.0011 125.4068 0001700 269.3425 323.0355 15.92109961  1324
STARLINK-36087          
1 66854U 25281G   25346.25001157 -.01176882  40758-3 -33938-2 0  9998
2 66854  43.0012 125.3992 0001774 264.2973 331.0129 15.92163881  1323
STARLINK-36090          
1 66855U 25281H   25346.25001157 -.01174128  40602-3 -33776-2 0  9998
2 66855  43.0013 125.3934 0001770 265.6138 332.0674 15.92210110  1307
STARLINK-36072          
1 66856U 25281J   25346.25001157 -.01185946  41375-3 -34020-2 0  9990
2 66856  43.0013 125.3864 0001575 269.2300 331.2039 15.92266827  1328
STARLINK-36083          
1 66857U 25281K   25346.25001157 -.01186319  41418-3 -33945-2 0  9999
2 66857  43.0012 125.3807 0001722 269.3877 333.3143 15.92314621  1324
STARLINK-35118          
1 66858U 25281L   25346.25001157 -.01202807  42501-3 -34315-2 0  9997
2 66858  43.0015 125.3743 0001747 266.3019 338.7888 15.92374231  1305
STARLINK-35646          
1 66859U 25281M   25346.25001157 -.01194324  41975-3 -33979-2 0  9991
2 66859  43.0014 125.3678 0001842 266.3962 341.3718 15.92424905  1323
STARLINK-35987          
1 66860U 25281N   25346.25001157 -.01216464  43536-3 -34073-2 0  9994
2 66860  43.0013 125.3327 0001860 264.2978 357.3397 15.92726392  1324
